OBJECT_NAME,OBJECT_ID,EPOCH,MEAN_MOTION,ECCENTRICITY,INCLINATION,RA_OF_ASC_NODE,ARG_OF_PERICENTER,MEAN_ANOMALY,EPHEMERIS_TYPE,CLASSIFICATION_TYPE,NORAD_CAT_ID,ELEMENT_SET_NO,REV_AT_EPOCH,BSTAR,MEAN_MOTION_DOT,MEAN_MOTION_DDOT
TJS-7,2021-077A,2026-06-24T05:19:43.042944,1.00276081,.00036611,0.3360,264.9043,116.0129,231.9002,0,U,49115,999,961,0,-.117E-5,0
CHINASAT 9B,2021-080A,2026-06-24T13:58:11.153856,1.00270077,.0002409,0.0245,271.3484,203.5527,108.7865,0,U,49125,999,1772,0,-.304E-5,0
SHIJIAN-21 (SJ-21),2021-094A,2026-06-24T18:40:58.814400,1.00267762,.0049529,5.1312,61.1421,168.1162,91.8833,0,U,49330,999,543,0,-.343E-5,0
SES-17,2021-095A,2026-06-24T03:02:15.882144,1.00269964,.00011196,0.0253,40.6398,47.6120,162.5006,0,U,49332,999,1792,0,-.265E-5,0
SYRACUSE 4A,2021-095B,2026-06-23T23:10:22.823616,1.00267299,.00013598,0.0243,11.2820,88.2760,205.6698,0,U,49333,999,1801,0,0,0
QZS-1R (MICHIBIKI-1R),2021-096A,2026-06-23T14:59:36.566592,1.00253892,.07552898,37.4749,79.4864,271.9239,278.8307,0,U,49336,999,1707,0,-.312E-5,0
ZHONGXING-1D,2021-114A,2026-06-24T04:33:38.707776,1.00273392,.00002078,0.0375,148.5364,58.2596,264.1318,0,U,49505,999,1689,0,-.329E-5,0
STPSAT-6,2021-118A,2026-06-24T04:38:38.723136,1.00270379,.00011059,0.3395,85.3611,266.3597,238.6125,0,U,49817,999,1664,0,-.38E-6,0
EXPRESS AMU-7,2021-123A,2026-06-24T15:02:45.945888,1.00272543,.000043,0.0195,287.7975,80.8663,274.8064,0,U,50001,999,1661,0,-.234E-5,0
EXPRESS AMU-3,2021-123B,2026-06-22T23:03:52.583328,1.00270213,.00006345,0.0209,341.5043,305.9181,72.5707,0,U,50002,999,709,0,0,0
TIANLIAN 2-02,2021-124A,2026-06-24T04:54:14.539680,1.00271927,.00010956,0.8206,86.0332,198.1588,232.6855,0,U,50005,999,1669,0,-.7E-7,0
TURKSAT 5B,2021-126A,2026-06-23T23:09:22.919904,1.00267402,.00029353,0.0686,338.9235,19.3656,303.1677,0,U,50212,999,1636,0,.153E-5,0
INMARSAT 6-F1,2021-128A,2026-06-24T04:28:38.644032,1.00270438,.00001907,0.0152,315.6756,99.2574,8.3322,0,U,50319,999,1632,0,-.164E-5,0
SHIYAN-12 01 (SY-12 01),2021-129A,2026-06-24T18:02:02.332896,1.00042915,.0003225,3.6943,79.8133,292.8837,224.5283,0,U,50321,999,1657,0,.124E-5,0
SHIYAN-12 02 (SY-12 02),2021-129B,2026-06-24T18:14:12.056928,1.00487823,.0002987,3.6938,79.8173,56.4791,144.9858,0,U,50322,999,1657,0,-.296E-5,0
TJS-9,2021-135A,2026-06-24T04:33:38.707776,1.00272500,.00038067,0.0324,199.9055,215.1904,62.8909,0,U,50574,999,1650,0,-.291E-5,0
USA 324,2022-006A,2026-06-06T02:06:38.886912,1.00289779,.000284,0.7690,83.2777,165.6787,110.1567,0,U,51280,999,1602,0,-.58E-6,0
GOES 18,2022-021A,2026-06-23T22:18:18.296352,1.00272065,.00005086,0.0347,147.7106,337.3264,344.6155,0,U,51850,999,666,0,.103E-5,0
ZHONGXING-6D,2022-038A,2026-06-23T21:32:07.254816,1.00266783,.00006091,0.0114,25.3285,98.5033,236.1740,0,U,52255,999,1548,0,0,0
NILESAT 301,2022-061A,2026-06-24T04:03:26.204256,1.00272364,.0004865,0.0461,345.3961,72.5880,268.1900,0,U,52817,999,1480,0,-.5E-6,0
CMS-02 (GSAT-24),2022-067A,2026-06-24T04:29:01.250592,1.00271875,.00017153,0.0422,252.1119,123.7389,46.7606,0,U,52903,999,1467,0,-.158E-5,0
MEASAT 3D,2022-067B,2026-06-24T02:48:52.376832,1.00272743,.00008272,0.0482,304.7971,95.0386,6.1613,0,U,52904,999,1471,0,-.235E-5,0
SES-22,2022-071A,2026-06-24T05:08:31.790112,1.00274564,.00015833,0.0206,297.7919,146.0970,126.6234,0,U,52933,999,759,0,.112E-5,0
WFOV (USA 332),2022-073A,2026-06-23T23:31:27.624576,1.00272174,.00018822,3.7288,78.4476,260.0323,45.8031,0,U,52940,999,1443,0,-.358E-5,0
TIANLIAN 2-03,2022-078A,2026-06-24T04:44:38.891904,1.00271249,.00012521,0.6885,77.1672,335.0356,301.8781,0,U,53100,999,1461,0,.79E-6,0
SBIRS GEO-6 (USA 336),2022-092A,2026-06-24T00:07:38.712288,1.00271647,.00020756,3.2455,317.6138,126.2932,329.1695,0,U,53355,999,1430,0,-.285E-5,0
EUTELSAT KONNECT VHTS,2022-110A,2026-06-24T01:54:38.704032,1.00272842,.00026555,0.0634,100.1694,348.6531,214.7752,0,U,53765,999,690,0,.24E-6,0
ZHONGXING-1E,2022-112A,2026-06-24T04:28:38.786592,1.00272231,.00003805,0.0443,181.9436,146.0199,92.9561,0,U,53813,999,1391,0,-.142E-5,0
SES-20,2022-123A,2026-06-24T00:27:38.754720,1.00269633,.00020492,0.0244,65.4105,31.1571,79.4105,0,U,53960,999,1360,0,-.94E-6,0
SES-21,2022-123B,2026-06-23T10:21:26.129952,1.00271938,.00010078,0.0387,19.7009,64.8583,211.4828,0,U,53961,999,727,0,0,0
GALAXY 33 (G-33),2022-128A,2026-06-24T01:44:54.339360,1.00275107,.00017933,0.0098,332.5254,123.6035,69.3408,0,U,54026,999,1381,0,.86E-6,0
GALAXY 34 (G-34),2022-128B,2026-06-23T07:41:18.543264,1.00267852,.00017934,0.0203,0.4191,105.3742,152.0255,0,U,54027,999,1397,0,0,0
