TJS-7                   
1 49115U 21077A   26175.22202596 -.00000117  00000+0  00000+0 0  9994
2 49115   0.3360 264.9043 0003661 116.0129 231.9002  1.00276081  9616
CHINASAT 9B             
1 49125U 21080A   26175.58207354 -.00000304  00000+0  00000+0 0  9993
2 49125   0.0245 271.3484 0002409 203.5527 108.7865  1.00270077 17728
SHIJIAN-21 (SJ-21)      
1 49330U 21094A   26175.77845850 -.00000343  00000+0  00000+0 0  9999
2 49330   5.1312  61.1421 0049529 168.1162  91.8833  1.00267762  5437
SES-17                  
1 49332U 21095A   26175.12657271 -.00000265  00000+0  00000+0 0  9992
2 49332   0.0253  40.6398 0001119  47.6120 162.5006  1.00269964 17921
SYRACUSE 4A             
1 49333U 21095B   26174.96554194  .00000000  00000+0  00000+0 0  9990
2 49333   0.0243  11.2820 0001359  88.2760 205.6698  1.00267299 18018
QZS-1R (MICHIBIKI-1R)   
1 49336U 21096A   26174.62472878 -.00000312  00000+0  00000+0 0  9992
2 49336  37.4749  79.4864 0755289 271.9239 278.8307  1.00253892 17078
ZHONGXING-1D            
1 49505U 21114A   26175.19003134 -.00000329  00000+0  00000+0 0  9997
2 49505   0.0375 148.5364 0000207  58.2596 264.1318  1.00273392 16891
STPSAT-6                
1 49817U 21118A   26175.19350374 -.00000038  00000+0  00000+0 0  9995
2 49817   0.3395  85.3611 0001105 266.3597 238.6125  1.00270379 16643
EXPRESS AMU-7           
1 50001U 21123A   26175.62692067 -.00000234  00000+0  00000+0 0  9992
2 50001   0.0195 287.7975 0000430  80.8663 274.8064  1.00272543 16615
EXPRESS AMU-3           
1 50002U 21123B   26173.96102527  .00000000  00000+0  00000+0 0  9995
2 50002   0.0209 341.5043 0000634 305.9181  72.5707  1.00270213  7090
TIANLIAN 2-02           
1 50005U 21124A   26175.20433495 -.00000007  00000+0  00000+0 0  9997
2 50005   0.8206  86.0332 0001095 198.1588 232.6855  1.00271927 16697
TURKSAT 5B              
1 50212U 21126A   26174.96484861  .00000153  00000+0  00000+0 0  9995
2 50212   0.0686 338.9235 0002935  19.3656 303.1677  1.00267402 16369
INMARSAT 6-F1           
1 50319U 21128A   26175.18655838 -.00000164  00000+0  00000+0 0  9997
2 50319   0.0152 315.6756 0000190  99.2574   8.3322  1.00270438 16322
SHIYAN-12 01 (SY-12 01) 
1 50321U 21129A   26175.75141589  .00000124  00000+0  00000+0 0  9992
2 50321   3.6943  79.8133 0003225 292.8837 224.5283  1.00042915 16577
SHIYAN-12 02 (SY-12 02) 
1 50322U 21129B   26175.75986177 -.00000296  00000+0  00000+0 0  9994
2 50322   3.6938  79.8173 0002987  56.4791 144.9858  1.00487823 16577
TJS-9                   
1 50574U 21135A   26175.19003134 -.00000291  00000+0  00000+0 0  9996
2 50574   0.0324 199.9055 0003806 215.1904  62.8909  1.00272500 16502
USA 324                 
1 51280U 22006A   26157.08795008 -.00000058  00000+0  00000+0 0  9996
2 51280   0.7690  83.2777 0002840 165.6787 110.1567  1.00289779 16021
GOES 18                 
1 51850U 22021A   26174.92937843  .00000103  00000+0  00000+0 0  9993
2 51850   0.0347 147.7106 0000508 337.3264 344.6155  1.00272065  6661
ZHONGXING-6D            
1 52255U 22038A   26174.89730619  .00000000  00000+0  00000+0 0  9995
2 52255   0.0114  25.3285 0000609  98.5033 236.1740  1.00266783 15489
NILESAT 301             
1 52817U 22061A   26175.16905329 -.00000050  00000+0  00000+0 0  9994
2 52817   0.0461 345.3961 0004865  72.5880 268.1900  1.00272364 14804
CMS-02 (GSAT-24)        
1 52903U 22067A   26175.18682003 -.00000158  00000+0  00000+0 0  9998
2 52903   0.0422 252.1119 0001715 123.7389  46.7606  1.00271875 14675
MEASAT 3D               
1 52904U 22067B   26175.11727288 -.00000235  00000+0  00000+0 0  9993
2 52904   0.0482 304.7971 0000827  95.0386   6.1613  1.00272743 14711
SES-22                  
1 52933U 22071A   26175.21425683  .00000112  00000+0  00000+0 0  9998
2 52933   0.0206 297.7919 0001583 146.0970 126.6234  1.00274564  7594
WFOV (USA 332)          
1 52940U 22073A   26174.98018084 -.00000358  00000+0  00000+0 0  9997
2 52940   3.7288  78.4476 0001882 260.0323  45.8031  1.00272174 14438
TIANLIAN 2-03           
1 53100U 22078A   26175.19767236  .00000079  00000+0  00000+0 0  9994
2 53100   0.6885  77.1672 0001252 335.0356 301.8781  1.00271249 14619
SBIRS GEO-6 (USA 336)   
1 53355U 22092A   26175.00530917 -.00000285  00000+0  00000+0 0  9996
2 53355   3.2455 317.6138 0002075 126.2932 329.1695  1.00271647 14301
EUTELSAT KONNECT VHTS   
1 53765U 22110A   26175.07961463  .00000024  00000+0  00000+0 0  9993
2 53765   0.0634 100.1694 0002655 348.6531 214.7752  1.00272842  6909
ZHONGXING-1E            
1 53813U 22112A   26175.18656003 -.00000142  00000+0  00000+0 0  9994
2 53813   0.0443 181.9436 0000380 146.0199  92.9561  1.00272231 13910
SES-20                  
1 53960U 22123A   26175.01919855 -.00000094  00000+0  00000+0 0  9994
2 53960   0.0244  65.4105 0002049  31.1571  79.4105  1.00269633 13605
SES-21                  
1 53961U 22123B   26174.43155243  .00000000  00000+0  00000+0 0  9999
2 53961   0.0387  19.7009 0001007  64.8583 211.4828  1.00271938  7275
GALAXY 33 (G-33)        
1 54026U 22128A   26175.07285115  .00000086  00000+0  00000+0 0  9994
2 54026   0.0098 332.5254 0001793 123.6035  69.3408  1.00275107 13816
GALAXY 34 (G-34)        
1 54027U 22128B   26174.32035351  .00000000  00000+0  00000+0 0  9993
2 54027   0.0203   0.4191 0001793 105.3742 152.0255  1.00267852 13973
